#dP2024  7 24  0  0  0.00000000      96 __u+U IGS20 FIT  IAC
## 2324 259200.00000000   900.00000000 60515 0.0000000000000
+  130   C01C02C03C04C05C06C07C09C10C11C12C13C14C16C19C20C21
+        C22C23C24C25C26C27C28C29C30C32C33C34C35C36C37C38C39
+        C40C41C42C43C44C45C59C60C62E02E03E04E05E06E07E08E09
+        E10E11E12E13E14E15E18E19E21E24E25E26E27E30E31E33E34
+        E36G01G02G03G04G05G06G07G08G09G10G11G12G13G14G15G16
+        G17G18G19G20G21G22G23G24G25G26G27G28G29G30G31G32J02
+        J03J04R01R02R03R04R05R06R07R08R09R10R11R12R13R14R15
+        R16R17R18R19R20R21R22R23R24R25R26  0  0  0  0  0  0
++        18 17 17 18 17  9  9  9  9  9  9  9  9  9  7  7  7
++         7  7  8  7  7  7  7  7  7  7  7  7  7  7  7  8  8
++         8  7  7  7  7  7 18 20  0  4  4  4  5  5  4  4  5
++         4  4  4  4  4  4  5  4  4  5  4  5  4  4  5  5  4
++         4  6  4  3  4  4  4  4  4  4  4  4  4  4  4  4  4
++         4  4  4  4  4  4  4  4  4  4  4  4  4  4  4  3 11
++        11 11  7  6  6  6  6 16  6  6  6 15  6  6  8  6  6
++         6  6  6  7  7  6  6 15  6  8  8  0  0  0  0  0  0
%c M  cc GPS ccc cccc cccc cccc cccc ccccc ccccc ccccc ccccc
%c cc cc ccc ccc cccc cccc cccc cccc ccccc ccccc ccccc ccccc
%f  0.0000000  0.000000000  0.00000000000  0.000000000000000
%f  0.0000000  0.000000000  0.00000000000  0.000000000000000
%i    0    0    0    0      0      0      0      0         0
%i    0    0    0    0      0      0      0      0         0
/* INFORMATION & ANALYSIS CENTER (IAC)            RAPID DATA
/* S/V CLOCKS ARE ALIGNED TO GNSS TIME                      
/* G:C1WC2W R:C1PC2P E:C1XC5X C:C2IC6I J:C1CC2S             
/* PCV:IGS20_2317 OL/AL:FES2004  NONE     YN ORB:CoN CLK:CoN
*  2024 07 24 22 15  0.00000000
PC01 -34342.978765  24477.822924   -258.055420    910.220456
PC02   4445.986944  41856.208441  -1932.996213    878.797221
PC03 -14735.859362  39470.762190  -1008.665983    615.857476
PC04 -39620.541841  14470.401374    184.844265   -679.038105
PC05  21909.763693  35972.823789  -1599.420067   -577.639150
PC06  -3376.690977  36809.645248 -19929.107584    620.966776
PC07 -10776.079679  26521.089812  31029.281674   -521.028961
PC09   3787.442706  40439.461831  -9539.723377    -80.137407
PC10  -2470.009565  27758.355560  31990.034778    -92.593974
PC11  12893.139120  -8576.164061 -23150.425773    678.739430
PC12  21267.339494  10123.599259 -14938.524956   -264.758593
PC13 -12588.085133  35105.703496 -19797.190545    438.594137
PC14  23525.397189 -11346.119947   9919.523506    913.842150
PC16  -3420.942695  36278.554384 -20566.066408   -680.368325
PC19 -15940.495100  14906.524282 -17357.901091   -920.486508
PC20 -26892.408949   6896.632612  -2626.197111   -723.331423
PC21  22573.490206   6166.619746 -15221.973042   -952.225070
PC22   4889.297052  14896.421581 -23098.257273     71.026322
PC23    302.763626 -25577.724264 -11139.490956   -803.559040
PC24  17937.950758  -8303.541654  19684.232209    873.297517
PC25  12363.472182 -24245.915947   6114.564182    460.313335
PC26  12687.517382  11939.193937  21791.574462   -324.526880
PC27 -20982.792546 -17004.176992   7006.482857    345.354605
PC28 -12325.492420 -23564.615988  -8443.014974    266.294060
PC29  -5797.477492  16394.367244  21820.635025    312.648381
PC30 -19769.498339   -949.197794  19668.266467   -142.638273
PC32 -22501.043962  -6091.352528  15333.129835   -682.452727
PC33  15979.996283 -15013.272163  17271.039090   -962.709509
PC34  18992.392869   -756.086021 -20442.022178    484.291644
PC35  12833.480871  23131.868195   8824.269858    304.722205
PC36 -12756.596801  24123.888984  -5836.024886 999999.999999
PC37 -12440.647618 -12173.736959 -21791.619764   -918.202380
PC38 -22756.512890  35100.595438  -5854.710914 999999.999999
PC39  -7254.687043  31676.704362 -26657.830301     -9.283469
PC40 -15918.504767  19853.944491  33576.887315    -81.963420
PC41  -3850.227548 -15176.605339  23145.443517   -937.385483
PC42  27279.345117  -5910.015278    915.500153   -455.945058
PC43   6759.068502 -15789.848971 -22008.515715     79.979293
PC44  21644.999589  16205.231820  -6871.271178    542.869292
PC45   -762.787517  25715.235383  10844.130944   -108.498436
PC59 -32306.767915  27048.328452  -1316.724319      0.149511
PC60   7295.741938  41527.082069   -991.865980 999999.999999
PC62      0.000000      0.000000      0.000000 999999.999999
PE02 -24657.302881  16269.372549  -1955.391348    145.922170
PE03 -20778.715826   6263.791152 -20126.437397   -129.142367
PE04    883.521073 -17655.493270  23746.620483      8.408339
PE05 -27939.411530  -8537.581134  -4737.743720   4768.944098
PE06  -9829.361640 -19625.705244  19846.810501     -8.327060
PE07  18535.274165  18520.794169 -13779.994894 999999.999999
PE08  -1813.195745  17224.398858 -24007.292626 999999.999999
PE09 -18464.163701 -18467.426804  13918.498604   -527.623093
PE10  -4141.618008 -29274.739440   1273.276762   -643.079807
PE11 -10189.759119 -25358.369295  11361.928063   2266.471116
PE12   1953.955565 -28483.703484  -7842.579279  -1137.961617
PE13   9900.418218  25680.314962 -10895.235605    -23.259594
PE14  15053.590377 -14193.547692 -22444.546488    131.274669
PE15  -2284.539957  28285.390693   8419.521914   -116.772161
PE18   3913.634215  19268.657760  18659.256118    358.800756
PE19  22170.631555  -4585.345329  19077.950586    343.660016
PE21  23317.817755  -1475.756213  18180.366786   -607.263397
PE24  -8070.659883 -14974.438097 -24232.524725   -892.318003
PE25 -23118.668182   1105.767356 -18441.827183      7.255936
PE26  16280.674619   7499.690107 -23558.278489 999999.999999
PE27   8267.904110  14784.280903  24280.427362   -408.796973
PE30 -11551.891396  22115.044639  15926.571131 999999.999999
PE31  11469.126553 -22115.058317 -15976.494298    -30.387627
PE33  13125.242070 -13746.075865 -22692.097547     14.045390
PE34 -12906.011107  14293.195765  22474.303808   -124.531349
PE36 -16074.764737  -8145.224254  23479.343380   -259.572175
PG01  -2918.570755 -16560.999024 -20858.841881    235.504953
PG02 -15199.476175   2188.780756  22157.301234   -392.579055
PG03 -22450.673477  11874.973378   7398.887376    472.174299
PG04 -22312.538100   1462.184235 -14425.833932    410.510082
PG05  18255.699357   1421.651888 -19451.730106   -180.880211
PG06   4972.799390  25971.017826  -1707.954012    141.389657
PG07  -7303.244164  20300.662616 -14655.212565 999999.999999
PG08 -25840.851273  -5832.771577   3895.454077    288.255177
PG09 -12907.701238  10809.207625 -20641.414404    286.428887
PG10   3748.553358 -18823.684258  18418.582369    -74.860061
PG11  12194.286290  18686.835040 -14430.204369 999999.999999
PG12  23228.072112  -8394.253352   9425.985740   -524.940787
PG13  22449.900158  14265.210141  -2426.504210    666.660365
PG14  -7647.431704  20117.200169  15461.861699    456.561260
PG15  26196.320818   2897.737492   3488.251233    184.831516
PG16 -16004.501164  -6514.739319 -20617.942862   -227.478190
PG17   1966.156005  16683.221467  20955.190881    670.610751
PG18   7101.330641 -20802.809688 -14738.776470   -639.899252
PG19  11672.674780  18018.671672  15737.241357    515.111382
PG20  11343.543459  10310.944580 -21626.138555 999999.999999
PG21 -16384.207821  -4763.328069  21010.865095    106.884737
PG22   -445.679477  17554.042911  20427.194850    -43.489799
PG23  14535.057439 -20312.732663   8736.335299    281.518906
PG24  15985.601590    188.503147  20825.472126   -484.384509
PG25  20141.271584 -17092.320703     -7.024482    498.808949
PG26  -5632.472434 -15894.532795 -20602.231491    113.807696
PG27 -22413.171749 -13215.544622  -6640.373436    -31.847459
PG28  -4608.546938 -26146.379420    744.261243   -344.980178
PG29  16650.803830  -6989.044663 -19566.057205   -587.851208
PG30    -70.212622  25756.856104  -5724.135867   -352.070355
PG31 -10745.481909 -21661.171664 -10751.406001   -226.500439
PG32  -5143.592306 -16836.334011  20160.848586   -610.314692
PJ02 -31372.948662  27567.893323  10884.406297     -0.617444
PJ03 -25857.521714  25320.216399  26797.593497     -1.338306
PJ04 -30309.515123  22445.809759 -13610.083556     50.742756
PR01  25356.555506  -1931.194028   2090.693608     92.400273
PR02  16785.963376  -8069.364129  17437.360225    -23.835961
PR03  -1520.470706 -10802.613088  23103.094787    104.361379
PR04 -18313.874010  -7485.670667  16135.415914    246.703288
PR05 -25513.201307   -358.155100    507.513071    135.016134
PR06 -15405.226902   9220.159442 -18141.674751   -173.250703
PR07   2158.889080  10744.937107 -22992.911178 999999.999999
PR08  18568.671122   7278.088737 -15824.406156 999999.999999
PR09 -13851.510722  20644.805472  -5484.481173    199.553611
PR10  -7186.345354  22644.674641   9387.229613   -194.396919
PR11   4928.695454  12459.325620  21716.256374     17.139789
PR12  14609.067544  -6593.171174  19871.083004     42.846083
PR13  14820.697388 -19106.271820   8115.291554    -49.769967
PR14   5718.929431 -22064.897367 -11455.939311     26.727317
PR15  -5998.984190 -11125.133172 -22132.258334     77.552840
PR16 -14393.426157   6515.607453 -19996.585544     27.666734
PR17  -7127.318186 -22010.227596 -10684.276025    107.561865
PR18 -14422.409861 -20275.545619   5725.760072    153.626521
PR19 -14572.581318 -10212.557002  18266.575329   -285.066513
PR20  -5737.797972  10663.897206  22449.976456   -116.668708
PR21   6709.953685  21975.459240  11112.430742   -120.300026
PR22  14292.152762  19997.486436  -6785.428719     82.566187
PR23  14174.548912   6969.973119 -20041.049878   -127.810540
PR24   5288.530700 -11620.138713 -22065.550209    -65.056303
PR25   6368.606387  22458.123803  10318.117433 999999.999999
PR26  17519.371477   7660.877814 -16877.384892 999999.999999
EOF
